[{"OBJECT_NAME":"SKYKRAFT-1A","OBJECT_ID":"2023-001AX","EPOCH":"2026-03-09T17:03:19.828224","MEAN_MOTION":15.28083228,"ECCENTRICITY":0.00112767,"INCLINATION":97.3349,"RA_OF_ASC_NODE":127.629,"ARG_OF_PERICENTER":121.5092,"MEAN_ANOMALY":238.7251,"EPHEMERIS_TYPE":0,"CLASSIFICATION_TYPE":"U","NORAD_CAT_ID":55054,"ELEMENT_SET_NO":999,"REV_AT_EPOCH":17652,"BSTAR":0.0003006872,"MEAN_MOTION_DOT":8.177e-5,"MEAN_MOTION_DDOT":0},{"OBJECT_NAME":"STARLINK-35511","OBJECT_ID":"2025-253AB","EPOCH":"2026-03-09T11:02:20.178528","MEAN_MOTION":15.27591717,"ECCENTRICITY":0.00014518,"INCLINATION":43.0017,"RA_OF_ASC_NODE":213.4255,"ARG_OF_PERICENTER":243.6652,"MEAN_ANOMALY":116.405,"EPHEMERIS_TYPE":0,"CLASSIFICATION_TYPE":"U","NORAD_CAT_ID":66344,"ELEMENT_SET_NO":999,"REV_AT_EPOCH":2021,"BSTAR":0.0011744517,"MEAN_MOTION_DOT":0.00032209,"MEAN_MOTION_DDOT":0}]
